{"type": "FeatureCollection", "features": [ {"type": "Feature", "properties": {"norad_id": 40228, "name": "COSMOS 2251 DEB", "group": "cosmos-2251-debris", "lat": -72.2555656970345, "lon": 124.11799469260774, "alt_km": 748.5768210064198, "timestamp": "2025-12-23T09:49:07.481238+00:00", "meta": {"OBJECT_NAME": "COSMOS 2251 DEB", "OBJECT_ID": "1993-036BVH", "EPOCH": "2025-12-22T22:40:43.832064", "MEAN_MOTION": 14.41012867, "ECCENTRICITY": 0.00242261, "INCLINATION": 74.0542, "RA_OF_ASC_NODE": 241.6627, "ARG_OF_PERICENTER": 301.6837, "MEAN_ANOMALY": 73.6667, "EPHEMERIS_TYPE": 0, "CLASSIFICATION_TYPE": "U", "NORAD_CAT_ID": 40228, "ELEMENT_SET_NO": 999, "REV_AT_EPOCH": 59068, "BSTAR": 0.00025850327, "MEAN_MOTION_DOT": 8.07e-06, "MEAN_MOTION_DDOT": 0}, "tle": {"line1": "1 40228U 93036BVH 25356.94495176  .00000807  00000+0  25850-3 0  9990", "line2": "2 40228  74.0542 241.6627 0024226 301.6837  73.6667 14.41012867590689"}}, "geometry": {"type": "Point", "coordinates": [124.11799469260774, -72.2555656970345]}}, {"type": "Feature", "properties": {"norad_id": 40230, "name": "COSMOS 2251 DEB", "group": "cosmos-2251-debris", "lat": 24.10264423921007, "lon": -145.75936906550612, "alt_km": 733.8550919466115, "timestamp": "2025-12-23T09:49:07.481248+00:00", "meta": {"OBJECT_NAME": "COSMOS 2251 DEB", "OBJECT_ID": "1993-036BVK", "EPOCH": "2025-12-20T07:41:52.070784", "MEAN_MOTION": 14.49354869, "ECCENTRICITY": 0.00189754, "INCLINATION": 74.0435, "RA_OF_ASC_NODE": 212.675, "ARG_OF_PERICENTER": 270.0639, "MEAN_ANOMALY": 207.3635, "EPHEMERIS_TYPE": 0, "CLASSIFICATION_TYPE": "U", "NORAD_CAT_ID": 40230, "ELEMENT_SET_NO": 999, "REV_AT_EPOCH": 59081, "BSTAR": 0.00041501757, "MEAN_MOTION_DOT": 1.562e-05, "MEAN_MOTION_DDOT": 0}, "tle": {"line1": "1 40230U 93036BVK 25354.32074156  .00001562  00000+0  41502-3 0  9995", "line2": "2 40230  74.0435 212.6750 0018975 270.0639 207.3635 14.49354869590816"}}, "geometry": {"type": "Point", "coordinates": [-145.75936906550612, 24.10264423921007]}}, {"type": "Feature", "properties": {"norad_id": 40233, "name": "COSMOS 2251 DEB", "group": "cosmos-2251-debris", "lat": -18.870101148242433, "lon": -91.66562560470541, "alt_km": 679.8206906135374, "timestamp": "2025-12-23T09:49:07.481258+00:00", "meta": {"OBJECT_NAME": "COSMOS 2251 DEB", "OBJECT_ID": "1993-036BVN", "EPOCH": "2025-12-16T00:45:52.214112", "MEAN_MOTION": 14.58458772, "ECCENTRICITY": 0.0044987, "INCLINATION": 73.9406, "RA_OF_ASC_NODE": 96.8035, "ARG_OF_PERICENTER": 171.0622, "MEAN_ANOMALY": 189.1354, "EPHEMERIS_TYPE": 0, "CLASSIFICATION_TYPE": "U", "NORAD_CAT_ID": 40233, "ELEMENT_SET_NO": 999, "REV_AT_EPOCH": 59185, "BSTAR": 0.00091306486, "MEAN_MOTION_DOT": 4.268e-05, "MEAN_MOTION_DDOT": 0}, "tle": {"line1": "1 40233U 93036BVN 25350.03185433  .00004268  00000+0  91306-3 0  9996", "line2": "2 40233  73.9406  96.8035 0044987 171.0622 189.1354 14.58458772591855"}}, "geometry": {"type": "Point", "coordinates": [-91.66562560470541, -18.870101148242433]}}, {"type": "Feature", "properties": {"norad_id": 40236, "name": "COSMOS 2251 DEB", "group": "cosmos-2251-debris", "lat": 18.877618992182132, "lon": -58.86060298386517, "alt_km": 1525.8097212462308, "timestamp": "2025-12-23T09:49:07.481268+00:00", "meta": {"OBJECT_NAME": "COSMOS 2251 DEB", "OBJECT_ID": "1993-036BVR", "EPOCH": "2025-12-07T17:52:23.026080", "MEAN_MOTION": 13.24639967, "ECCENTRICITY": 0.05366128, "INCLINATION": 73.5349, "RA_OF_ASC_NODE": 151.6266, "ARG_OF_PERICENTER": 32.3576, "MEAN_ANOMALY": 330.9258, "EPHEMERIS_TYPE": 0, "CLASSIFICATION_TYPE": "U", "NORAD_CAT_ID": 40236, "ELEMENT_SET_NO": 999, "REV_AT_EPOCH": 53558, "BSTAR": 0.0015786255, "MEAN_MOTION_DOT": 1.455e-05, "MEAN_MOTION_DDOT": 0}, "tle": {"line1": "1 40236U 93036BVR 25341.74471095  .00001455  00000+0  15786-2 0  9991", "line2": "2 40236  73.5349 151.6266 0536612  32.3576 330.9258 13.24639967535580"}}, "geometry": {"type": "Point", "coordinates": [-58.86060298386517, 18.877618992182132]}}, {"type": "Feature", "properties": {"norad_id": 40238, "name": "COSMOS 2251 DEB", "group": "cosmos-2251-debris", "lat": -72.80111972027258, "lon": -64.7174014331772, "alt_km": 1315.7251348556101, "timestamp": "2025-12-23T09:49:07.481278+00:00", "meta": {"OBJECT_NAME": "COSMOS 2251 DEB", "OBJECT_ID": "1993-036BVT", "EPOCH": "2025-12-22T19:47:22.832448", "MEAN_MOTION": 13.25143259, "ECCENTRICITY": 0.05497275, "INCLINATION": 73.9885, "RA_OF_ASC_NODE": 48.1113, "ARG_OF_PERICENTER": 17.8467, "MEAN_ANOMALY": 344.111, "EPHEMERIS_TYPE": 0, "CLASSIFICATION_TYPE": "U", "NORAD_CAT_ID": 40238, "ELEMENT_SET_NO": 999, "REV_AT_EPOCH": 54170, "BSTAR": 0.0018868212, "MEAN_MOTION_DOT": 1.833e-05, "MEAN_MOTION_DDOT": 0}, "tle": {"line1": "1 40238U 93036BVT 25356.82456982  .00001833  00000+0  18868-2 0  9990", "line2": "2 40238  73.9885  48.1113 0549727  17.8467 344.1110 13.25143259541700"}}, "geometry": {"type": "Point", "coordinates": [-64.7174014331772, -72.80111972027258]}}, {"type": "Feature", "properties": {"norad_id": 40239, "name": "COSMOS 2251 DEB", "group": "cosmos-2251-debris", "lat": -64.65881108835592, "lon": -141.79808155787978, "alt_km": 676.5282997145423, "timestamp": "2025-12-23T09:49:07.481288+00:00", "meta": {"OBJECT_NAME": "COSMOS 2251 DEB", "OBJECT_ID": "1993-036BVU", "EPOCH": "2025-12-20T12:20:48.690816", "MEAN_MOTION": 14.62025821, "ECCENTRICITY": 0.00852453, "INCLINATION": 74.0316, "RA_OF_ASC_NODE": 260.9453, "ARG_OF_PERICENTER": 10.3713, "MEAN_ANOMALY": 171.3204, "EPHEMERIS_TYPE": 0, "CLASSIFICATION_TYPE": "U", "NORAD_CAT_ID": 40239, "ELEMENT_SET_NO": 999, "REV_AT_EPOCH": 59724, "BSTAR": 0.00026861912, "MEAN_MOTION_DOT": 1.387e-05, "MEAN_MOTION_DDOT": 0}, "tle": {"line1": "1 40239U 93036BVU 25354.51445244  .00001387  00000+0  26862-3 0  9992", "line2": "2 40239  74.0316 260.9453 0085245  10.3713 171.3204 14.62025821597245"}}, "geometry": {"type": "Point", "coordinates": [-141.79808155787978, -64.65881108835592]}}, {"type": "Feature", "properties": {"norad_id": 40792, "name": "COSMOS 2251 DEB", "group": "cosmos-2251-debris", "lat": -47.638863055289946, "lon": 8.579191115385516, "alt_km": 685.399815207521, "timestamp": "2025-12-23T09:49:07.481298+00:00", "meta": {"OBJECT_NAME": "COSMOS 2251 DEB", "OBJECT_ID": "1993-036BVV", "EPOCH": "2025-12-21T09:02:29.575680", "MEAN_MOTION": 14.67648102, "ECCENTRICITY": 0.00147404, "INCLINATION": 74.0452, "RA_OF_ASC_NODE": 30.785, "ARG_OF_PERICENTER": 133.0098, "MEAN_ANOMALY": 243.0806, "EPHEMERIS_TYPE": 0, "CLASSIFICATION_TYPE": "U", "NORAD_CAT_ID": 40792, "ELEMENT_SET_NO": 999, "REV_AT_EPOCH": 63311, "BSTAR": 0.00064575886, "MEAN_MOTION_DOT": 3.648e-05, "MEAN_MOTION_DDOT": 0}, "tle": {"line1": "1 40792U 93036BVV 25355.37673120  .00003648  00000+0  64576-3 0  9993", "line2": "2 40792  74.0452  30.7850 0014740 133.0098 243.0806 14.67648102633115"}}, "geometry": {"type": "Point", "coordinates": [8.579191115385516, -47.638863055289946]}}, {"type": "Feature", "properties": {"norad_id": 40794, "name": "COSMOS 2251 DEB", "group": "cosmos-2251-debris", "lat": -73.18247221610966, "lon": -5.3422995824241175, "alt_km": 585.2370103244684, "timestamp": "2025-12-23T09:49:07.481308+00:00", "meta": {"OBJECT_NAME": "COSMOS 2251 DEB", "OBJECT_ID": "1993-036BVX", "EPOCH": "2025-12-13T15:37:41.141568", "MEAN_MOTION": 14.93159868, "ECCENTRICITY": 0.00107848, "INCLINATION": 73.9763, "RA_OF_ASC_NODE": 122.399, "ARG_OF_PERICENTER": 261.0962, "MEAN_ANOMALY": 116.104, "EPHEMERIS_TYPE": 0, "CLASSIFICATION_TYPE": "U", "NORAD_CAT_ID": 40794, "ELEMENT_SET_NO": 999, "REV_AT_EPOCH": 61938, "BSTAR": 0.0047306735, "MEAN_MOTION_DOT": 0.00049759, "MEAN_MOTION_DDOT": 0}, "tle": {"line1": "1 40794U 93036BVX 25347.65117062  .00049759  00000+0  47307-2 0  9990", "line2": "2 40794  73.9763 122.3990 0010784 261.0962 116.1040 14.93159868619387"}}, "geometry": {"type": "Point", "coordinates": [-5.3422995824241175, -73.18247221610966]}}, {"type": "Feature", "properties": {"norad_id": 40796, "name": "COSMOS 2251 DEB", "group": "cosmos-2251-debris", "lat": -29.306450102398536, "lon": -49.65462275861834, "alt_km": 601.3352770172587, "timestamp": "2025-12-23T09:49:07.481318+00:00", "meta": {"OBJECT_NAME": "COSMOS 2251 DEB", "OBJECT_ID": "1993-036BVZ", "EPOCH": "2025-12-22T02:53:41.429760", "MEAN_MOTION": 14.81825001, "ECCENTRICITY": 0.00560746, "INCLINATION": 74.0133, "RA_OF_ASC_NODE": 123.6327, "ARG_OF_PERICENTER": 258.6437, "MEAN_ANOMALY": 281.5716, "EPHEMERIS_TYPE": 0, "CLASSIFICATION_TYPE": "U", "NORAD_CAT_ID": 40796, "ELEMENT_SET_NO": 999, "REV_AT_EPOCH": 76297, "BSTAR": 0.0010167245, "MEAN_MOTION_DOT": 8.229e-05, "MEAN_MOTION_DDOT": 0}, "tle": {"line1": "1 40796U 93036BVZ 25356.12061840  .00008229  00000+0  10167-2 0  9997", "line2": "2 40796  74.0133 123.6327 0056074 258.6437 281.5716 14.81825001762978"}}, "geometry": {"type": "Point", "coordinates": [-49.65462275861834, -29.306450102398536]}}, {"type": "Feature", "properties": {"norad_id": 40797, "name": "COSMOS 2251 DEB", "group": "cosmos-2251-debris", "lat": -21.353369750861408, "lon": 66.60301651885685, "alt_km": 486.7488525644685, "timestamp": "2025-12-23T09:49:07.481328+00:00", "meta": {"OBJECT_NAME": "COSMOS 2251 DEB", "OBJECT_ID": "1993-036BWA", "EPOCH": "2025-12-21T22:58:09.286752", "MEAN_MOTION": 15.11502821, "ECCENTRICITY": 0.00722284, "INCLINATION": 73.9213, "RA_OF_ASC_NODE": 76.1019, "ARG_OF_PERICENTER": 345.6422, "MEAN_ANOMALY": 14.2715, "EPHEMERIS_TYPE": 0, "CLASSIFICATION_TYPE": "U", "NORAD_CAT_ID": 40797, "ELEMENT_SET_NO": 999, "REV_AT_EPOCH": 64783, "BSTAR": 0.00074206778, "MEAN_MOTION_DOT": 0.00013364, "MEAN_MOTION_DDOT": 0}, "tle": {"line1": "1 40797U 93036BWA 25355.95705193  .00013364  00000+0  74207-3 0  9996", "line2": "2 40797  73.9213  76.1019 0072228 345.6422  14.2715 15.11502821647839"}}, "geometry": {"type": "Point", "coordinates": [66.60301651885685, -21.353369750861408]}}]}